[{"OBJECT_NAME":"IRIS","OBJECT_ID":"2013-033A","EPOCH":"2026-03-09T13:26:21.239520","MEAN_MOTION":14.85645982,"ECCENTRICITY":0.00232612,"INCLINATION":97.9395,"RA_OF_ASC_NODE":268.1167,"ARG_OF_PERICENTER":285.8728,"MEAN_ANOMALY":73.9923,"EPHEMERIS_TYPE":0,"CLASSIFICATION_TYPE":"U","NORAD_CAT_ID":39197,"ELEMENT_SET_NO":999,"REV_AT_EPOCH":68558,"BSTAR":0.00024024039,"MEAN_MOTION_DOT":2.035e-5,"MEAN_MOTION_DDOT":0},{"OBJECT_NAME":"COSMOS 397 DEB","OBJECT_ID":"1971-015AK","EPOCH":"2026-03-09T22:58:31.009440","MEAN_MOTION":13.69427816,"ECCENTRICITY":0.06260381,"INCLINATION":65.6843,"RA_OF_ASC_NODE":28.4631,"ARG_OF_PERICENTER":58.8288,"MEAN_ANOMALY":307.261,"EPHEMERIS_TYPE":0,"CLASSIFICATION_TYPE":"U","NORAD_CAT_ID":5156,"ELEMENT_SET_NO":999,"REV_AT_EPOCH":65184,"BSTAR":0.001612721,"MEAN_MOTION_DOT":5.69e-5,"MEAN_MOTION_DDOT":0}]
